NORAD_CAT_ID,OBJECT_NAME,OBJECT_TYPE,EPOCH,MEAN_MOTION,ECCENTRICITY,INCLINATION,RA_OF_ASC_NODE,ARG_OF_PERICENTER,MEAN_ANOMALY,BSTAR,MEAN_MOTION_DOT,MEAN_MOTION_DDOT,TLE_LINE0,TLE_LINE1,TLE_LINE2,SEMIMAJOR_AXIS,PERIOD,APOGEE,PERIGEE,DECAYED
53713.0,STARLINK-4698,PAYLOAD,2023-10-03 16:54:17,15.08846951,0.0001246,53.2155,280.0397,80.0472,280.0661,0.00018066,2.589e-05,0.0,0 STARLINK-4698,1 53713U 22107P   23276.70437323  .00002589  00000-0  18066-3 0  9998,2 53713  53.2155 280.0397 0001246  80.0472 280.0661 15.08846951 60359,6917.859,95.437,540.586,538.862,0.0
53713.0,STARLINK-4698,PAYLOAD,2023-10-04 00:51:14,15.08833389,0.0001538,53.216,278.5528,96.8849,263.2319,-1.7348e-05,-5.64e-06,0.0,0 STARLINK-4698,1 53713U 22107P   23277.03558119 -.00000564  00000-0 -17348-4 0  9998,2 53713  53.2160 278.5528 0001538  96.8849 263.2319 15.08833389 59969,6917.901,95.438,540.83,538.702,0.0
53713.0,STARLINK-4698,PAYLOAD,2023-10-04 07:12:46,15.08841403,0.000182,53.2166,277.3659,101.4963,258.6233,0.00012456,1.695e-05,0.0,0 STARLINK-4698,1 53713U 22107P   23277.30053778  .00001695  00000-0  12456-3 0  9997,2 53713  53.2166 277.3659 0001820 101.4963 258.6233 15.08841403 60007,6917.876,95.437,541.0,538.482,0.0
53713.0,STARLINK-4698,PAYLOAD,2023-10-04 16:45:05,15.08839624,0.0001802,53.2159,275.5821,100.7989,259.3206,5.1569e-05,5.33e-06,0.0,0 STARLINK-4698,1 53713U 22107P   23277.69797936  .00000533  00000-0  51569-4 0  9999,2 53713  53.2159 275.5821 0001802 100.7989 259.3206 15.08839624 60505,6917.882,95.438,540.993,538.5,0.0
53713.0,STARLINK-4698,PAYLOAD,2023-10-05 07:03:33,15.08841459,0.000185,53.2173,272.9065,105.7381,254.3815,2.9824e-05,1.87e-06,0.0,0 STARLINK-4698,1 53713U 22107P   23278.29413900  .00000187  00000-0  29824-4 0  9996,2 53713  53.2173 272.9065 0001850 105.7381 254.3815 15.08841459 60595,6917.876,95.437,541.021,538.461,0.0
53713.0,STARLINK-4698,PAYLOAD,2023-10-05 16:35:52,15.08843822,0.0001238,53.214,271.1178,85.4549,274.6584,0.00010995,1.463e-05,0.0,0 STARLINK-4698,1 53713U 22107P   23278.69157709  .00001463  00000-0  10995-3 0  9998,2 53713  53.2140 271.1178 0001238  85.4549 274.6584 15.08843822 60218,6917.869,95.437,540.59,538.877,0.0
53713.0,STARLINK-4698,PAYLOAD,2023-10-06 00:32:48,15.08835412,0.0001722,53.2171,269.6332,99.4457,260.673,8.346e-05,1.04e-05,0.0,0 STARLINK-4698,1 53713U 22107P   23279.02278388  .00001040  00000-0  83460-4 0  9992,2 53713  53.2171 269.6332 0001722  99.4457 260.6730 15.08835412 60266,6917.894,95.438,540.951,538.568,0.0
53713.0,STARLINK-4698,PAYLOAD,2023-10-06 06:54:20,15.08842514,0.0001623,53.2173,268.4431,92.6513,267.4665,0.00011353,1.519e-05,0.0,0 STARLINK-4698,1 53713U 22107P   23279.28774024  .00001519  00000-0  11353-3 0  9990,2 53713  53.2173 268.4431 0001623  92.6513 267.4665 15.08842514 60749,6917.873,95.437,540.86,538.615,0.0
53713.0,STARLINK-4698,PAYLOAD,2023-10-06 16:26:39,15.08843554,0.000167,53.2165,266.6582,85.2469,274.8714,0.0001355,1.869e-05,0.0,0 STARLINK-4698,1 53713U 22107P   23279.68518029  .00001869  00000-0  13550-3 0  9994,2 53713  53.2165 266.6582 0001670  85.2469 274.8714 15.08843554 60806,6917.87,95.437,540.89,538.579,0.0
53713.0,STARLINK-4698,PAYLOAD,2023-10-07 08:20:31,15.08838677,0.0001723,53.2167,263.6844,87.3599,272.7591,4.9117e-05,4.94e-06,0.0,0 STARLINK-4698,1 53713U 22107P   23280.34758401  .00000494  00000-0  49117-4 0  9991,2 53713  53.2167 263.6844 0001723  87.3599 272.7591 15.08838677 60464,6917.884,95.438,540.941,538.557,0.0
53713.0,STARLINK-4698,PAYLOAD,2023-10-07 16:17:26,15.08841227,0.0001577,53.2166,262.1987,90.6863,269.431,7.8983e-05,9.69e-06,0.0,0 STARLINK-4698,1 53713U 22107P   23280.67878267  .00000969  00000-0  78983-4 0  9990,2 53713  53.2166 262.1987 0001577  90.6863 269.4310 15.08841227 60954,6917.877,95.437,540.833,538.651,0.0
53713.0,STARLINK-4698,PAYLOAD,2023-10-08 08:11:17,15.08848153,0.0001554,53.215,259.2227,97.1768,262.9401,0.00016389,2.322e-05,0.0,0 STARLINK-4698,1 53713U 22107P   23281.34117941  .00002322  00000-0  16389-3 0  9996,2 53713  53.2150 259.2227 0001554  97.1768 262.9401 15.08848153 61058,6917.855,95.437,540.796,538.645,0.0
53713.0,STARLINK-4698,PAYLOAD,2023-10-08 16:08:14,15.08835628,0.0001683,53.2175,257.7365,91.8204,268.2981,-2.3278e-05,-6.58e-06,0.0,0 STARLINK-4698,1 53713U 22107P   23281.67238555 -.00000658  00000-0 -23278-4 0  9995,2 53713  53.2175 257.7365 0001683  91.8204 268.2981 15.08835628 60661,6917.894,95.438,540.923,538.594,0.0
53713.0,STARLINK-4698,PAYLOAD,2023-10-09 08:02:05,15.08847223,0.0001551,53.2169,254.7617,101.1808,258.9358,0.00021053,3.065e-05,0.0,0 STARLINK-4698,1 53713U 22107P   23282.33478071  .00003065  00000-0  21053-3 0  9999,2 53713  53.2169 254.7617 0001551 101.1808 258.9358 15.08847223 60769,6917.858,95.437,540.796,538.65,0.0
53713.0,STARLINK-4698,PAYLOAD,2023-10-09 22:20:33,15.08839749,0.0001493,53.2155,252.0856,104.6765,255.4392,0.00012588,1.716e-05,0.0,0 STARLINK-4698,1 53713U 22107P   23282.93094565  .00001716  00000-0  12588-3 0  9991,2 53713  53.2155 252.0856 0001493 104.6765 255.4392 15.08839749 61298,6917.881,95.438,540.779,538.713,0.0
53713.0,STARLINK-4698,PAYLOAD,2023-10-10 03:06:42,15.08845379,0.0001686,53.2153,251.1937,103.8767,256.2413,0.00017627,2.519e-05,0.0,0 STARLINK-4698,1 53713U 22107P   23283.12966354  .00002519  00000-0  17627-3 0  9998,2 53713  53.2153 251.1937 0001686 103.8767 256.2413 15.08845379 60886,6917.864,95.437,540.895,538.563,0.0
53713.0,STARLINK-4698,PAYLOAD,2023-10-10 07:52:52,15.08850012,0.0001675,53.2162,250.301,107.3248,252.7928,0.0002548,3.771e-05,0.0,0 STARLINK-4698,1 53713U 22107P   23283.32838133  .00003771  00000-0  25480-3 0  9990,2 53713  53.2162 250.3010 0001675 107.3248 252.7928 15.08850012 61355,6917.85,95.437,540.874,538.556,0.0
53713.0,STARLINK-4698,PAYLOAD,2023-10-10 22:11:20,15.08834284,0.000157,53.2169,247.6243,113.4528,246.6629,1.4407e-06,-2.65e-06,0.0,0 STARLINK-4698,1 53713U 22107P   23283.92454821 -.00000265  00000-0  14407-5 0  9999,2 53713  53.2169 247.6243 0001570 113.4528 246.6629 15.08834284 61445,6917.898,95.438,540.849,538.677,0.0
53713.0,STARLINK-4698,PAYLOAD,2023-10-11 02:57:30,15.08838743,0.0001941,53.2165,246.7297,121.3505,238.7678,0.00012425,1.69e-05,0.0,0 STARLINK-4698,1 53713U 22107P   23284.12326707  .00001690  00000-0  12425-3 0  9991,2 53713  53.2165 246.7297 0001941 121.3505 238.7678 15.08838743 61030,6917.884,95.438,541.092,538.406,0.0
53713.0,STARLINK-4698,PAYLOAD,2023-10-11 07:43:39,15.0884919,0.0001431,53.216,245.8426,100.7243,259.391,0.00067231,0.00010431,0.0,0 STARLINK-4698,1 53713U 22107P   23284.32198631  .00010431  00000-0  67231-3 0  9994,2 53713  53.2160 245.8426 0001431 100.7243 259.3910 15.08849190 61062,6917.852,95.437,540.707,538.727,0.0
53713.0,STARLINK-4698,PAYLOAD,2023-10-11 14:05:12,15.08840034,0.0001376,53.2165,244.6522,98.6004,261.5144,0.00039944,6.075e-05,0.0,0 STARLINK-4698,1 53713U 22107P   23284.58694825  .00006075  00000-0  39944-3 0  9997,2 53713  53.2165 244.6522 0001376  98.6004 261.5144 15.08840034 61106,6917.88,95.438,540.697,538.793,0.0
53713.0,STARLINK-4698,PAYLOAD,2023-10-12 13:55:59,15.0884501,0.0001303,53.2161,240.1928,86.5227,273.5914,0.00053915,8.304e-05,0.0,0 STARLINK-4698,1 53713U 22107P   23285.58055089  .00008304  00000-0  53915-3 0  9992,2 53713  53.2161 240.1928 0001303  86.5227 273.5914 15.08845010 61697,6917.865,95.437,540.631,538.829,0.0
53713.0,STARLINK-4698,PAYLOAD,2023-10-13 04:14:27,15.08842575,0.0001339,53.2166,237.5187,91.3699,268.7447,0.00015151,2.124e-05,0.0,0 STARLINK-4698,1 53713U 22107P   23286.17671164  .00002124  00000-0  15151-3 0  9990,2 53713  53.2166 237.5187 0001339  91.3699 268.7447 15.08842575 61347,6917.873,95.437,540.664,538.811,0.0
53713.0,STARLINK-4698,PAYLOAD,2023-10-13 13:46:46,15.08841907,0.000144,53.216,235.7333,103.1337,256.9816,0.00015285,2.146e-05,0.0,0 STARLINK-4698,1 53713U 22107P   23286.57415121  .00002146  00000-0  15285-3 0  9995,2 53713  53.2160 235.7333 0001440 103.1337 256.9816 15.08841907 61840,6917.875,95.437,540.736,538.743,0.0
53713.0,STARLINK-4698,PAYLOAD,2023-10-13 20:08:19,15.08846736,0.0001606,53.2167,234.5439,94.9723,265.1452,0.00024081,3.547e-05,0.0,0 STARLINK-4698,1 53713U 22107P   23286.83911046  .00003547  00000-0  24081-3 0  9991,2 53713  53.2167 234.5439 0001606  94.9723 265.1452 15.08846736 61888,6917.86,95.437,540.836,538.614,0.0
53713.0,STARLINK-4698,PAYLOAD,2023-10-14 04:05:14,15.08862749,0.0001482,53.2163,233.0565,94.357,265.7592,0.00056207,8.674e-05,0.0,0 STARLINK-4698,1 53713U 22107P   23287.17030381  .00008674  00000-0  56207-3 0  9994,2 53713  53.2163 233.0565 0001482  94.3570 265.7592 15.08862749 61494,6917.811,95.436,540.701,538.651,0.0
53713.0,STARLINK-4698,PAYLOAD,2023-10-14 13:37:33,15.08839533,0.0001691,53.2168,231.2726,82.5378,277.5806,-4.2152e-05,-9.59e-06,0.0,0 STARLINK-4698,1 53713U 22107P   23287.56774939 -.00000959  00000-0 -42152-4 0  9996,2 53713  53.2168 231.2726 0001691  82.5378 277.5806 15.08839533 61994,6917.882,95.438,540.917,538.577,0.0
53713.0,STARLINK-4698,PAYLOAD,2023-10-14 19:59:06,15.08829726,0.0001957,53.2168,230.0854,84.2781,275.8434,-0.0001011,-1.896e-05,0.0,0 STARLINK-4698,1 53713U 22107P   23287.83271716 -.00001896  00000-0 -10110-3 0  9990,2 53713  53.2168 230.0854 0001957  84.2781 275.8434 15.08829726 61592,6917.912,95.438,541.131,538.423,0.0
53713.0,STARLINK-4698,PAYLOAD,2023-10-15 13:28:21,15.08829283,0.0001566,53.2166,226.8131,86.1887,273.9284,0.00025523,3.775e-05,0.0,0 STARLINK-4698,1 53713U 22107P   23288.56136237  .00003775  00000-0  25523-3 0  9999,2 53713  53.2166 226.8131 0001566  86.1887 273.9284 15.08829283 62147,6917.913,95.438,540.861,538.695,0.0
53713.0,STARLINK-4698,PAYLOAD,2023-10-15 19:49:54,15.08836568,0.0001522,53.2165,225.623,85.2184,274.8982,0.00060135,9.295e-05,0.0,0 STARLINK-4698,1 53713U 22107P   23288.82632376  .00009295  00000-0  60135-3 0  9994,2 53713  53.2165 225.6230 0001522  85.2184 274.8982 15.08836568 62188,6917.891,95.438,540.809,538.703,0.0
